QIANFAN-57              
1 62787U 25016C   25319.49540495  .00000145  00000+0  20625-3 0  9991
2 62787  88.9761 106.0089 0001256 125.6546 234.4722 13.50979698 43523
QIANFAN-58              
1 62788U 25016D   25319.46658402  .00000132  00000+0  18586-3 0  9996
2 62788  88.9731 105.8519 0015253  65.8626 294.4118 13.50979389 43568
QIANFAN-59              
1 62789U 25016E   25319.49127191  .00000134  00000+0  18865-3 0  9998
2 62789  88.9754 105.9165 0015694  69.1304 291.1526 13.50978862 43563
QIANFAN-60              
1 62790U 25016F   25319.45031019  .00000085  00000+0  11311-3 0  9993
2 62790  88.9736 105.8976 0017166  65.7495 294.5447 13.50975704 43542
QIANFAN-61              
1 62791U 25016G   25319.48302924  .00000154  00000+0  21954-3 0  9994
2 62791  88.9803 106.0384 0016099  65.2955 294.9870 13.50972860 43560
QIANFAN-62              
1 62792U 25016H   25319.48724652  .00000146  00000+0  20645-3 0  9998
2 62792  88.9749 105.9212 0017487  65.3584 294.9386 13.50982750 43559
QIANFAN-63              
1 62793U 25016J   25319.43785726  .00000153  00000+0  21816-3 0  9992
2 62793  88.9756 105.8760 0017615  70.4123 289.8928 13.50975820 43582
QIANFAN-64              
1 62794U 25016K   25319.47894801  .00000150  00000+0  21287-3 0  9991
2 62794  88.9743 105.8495 0015448  64.2371 296.0373 13.50977669 43589
